[{"OBJECT_NAME":"YUNHAI-2 01D","OBJECT_ID":"2018-112D","EPOCH":"2026-03-09T23:06:26.804736","MEAN_MOTION":14.28986233,"ECCENTRICITY":0.00157828,"INCLINATION":50.0122,"RA_OF_ASC_NODE":348.6213,"ARG_OF_PERICENTER":356.8631,"MEAN_ANOMALY":3.2183,"EPHEMERIS_TYPE":0,"CLASSIFICATION_TYPE":"U","NORAD_CAT_ID":43912,"ELEMENT_SET_NO":999,"REV_AT_EPOCH":37339,"BSTAR":0.00013763161,"MEAN_MOTION_DOT":1.89e-6,"MEAN_MOTION_DDOT":0},{"OBJECT_NAME":"FENGYUN 1C DEB","OBJECT_ID":"1999-025CAH","EPOCH":"2026-02-15T22:06:59.321952","MEAN_MOTION":14.36065873,"ECCENTRICITY":0.004928,"INCLINATION":98.5244,"RA_OF_ASC_NODE":99.0758,"ARG_OF_PERICENTER":320.5958,"MEAN_ANOMALY":39.1647,"EPHEMERIS_TYPE":0,"CLASSIFICATION_TYPE":"U","NORAD_CAT_ID":31627,"ELEMENT_SET_NO":999,"REV_AT_EPOCH":65702,"BSTAR":0.0010316,"MEAN_MOTION_DOT":3.0e-5,"MEAN_MOTION_DDOT":0}]
